{"fetched_at":"2026-03-29T16:36:15Z","count":15609,"tles":[{"name":"STARLINK-34283","line1":"1 64214U 25117M   26087.91211791  .00020777  00000+0  71160-3 0  9997","line2":"2 64214  53.1591 309.9690 0001096  70.0946 290.0172 15.30202804 47479","category":"Starlink"}]}