{
  "norad_id": 64214,
  "name": "STARLINK-34283",
  "history": [
    {
      "epoch": "2026-03-28T21:53:26.987424Z",
      "apogee_km": 475.9578236627458,
      "perigee_km": 474.45557072431984,
      "latitude_deg": -5.898177865572785e-05,
      "longitude_deg": 155.28074808765675,
      "height_km": 475.8492797441109,
      "semi_major_axis_km": 6853.3436971935325,
      "eccentricity": 0.0001096,
      "inclination_deg": 53.1591,
      "raan_deg": 309.969,
      "arg_perigee_deg": 70.0946,
      "mean_anomaly_deg": 290.0172,
      "mean_motion_rev_day": 15.30202804
    }
  ]
}